EUTELSAT 21B            
1 38992U 12062B   25235.94629465  .00000115  00000+0  00000+0 0  9999
2 38992   0.0694 352.1348 0002546 159.5264 183.0874  1.00269126 46847
EUTELSAT 70B            
1 39020U 12069A   25235.88332845 -.00000058  00000+0  00000+0 0  9992
2 39020   0.0652 352.2087 0003602 162.0240 206.6695  1.00271391 46527
EUTELSAT 117 WEST A     
1 39122U 13012A   25235.73239248  .00000000  00000+0  00000+0 0  9997
2 39122   0.0192 248.5186 0002868 276.0115 314.5960  1.00270829 45456
EUTELSAT 7B             
1 39163U 13022A   25235.90391900  .00000033  00000+0  00000+0 0  9992
2 39163   0.0699 350.5865 0001700  54.4753 259.7657  1.00273325 44974
EXPRESS-AT1             
1 39612U 14010A   25235.97591961  .00000064  00000+0  00000+0 0  9999
2 39612   0.0262 242.1856 0000626 194.1569 303.4879  1.00274027 41833
EXPRESS-AT2             
1 39613U 14010B   25235.21364205  .00000000  00000+0  00000+0 0  9996
2 39613   0.0222 135.9156 0000226 151.0496 261.5412  1.00267750 41516
EUTELSAT 3B             
1 39773U 14030A   25235.90347168  .00000005  00000+0  00000+0 0  9995
2 39773   0.0656 351.4858 0004132 164.2673 145.0081  1.00271058 41087
EUTELSAT 115 WEST B     
1 40425U 15010B   25234.43813000 -.00000043  00000+0  00000+0 0  9993
2 40425   0.0121 257.5851 0000215 169.9174 306.3030  1.00272795 38390
